[
    {
        "Altitude(m)": 553909.5616016113,
        "Argument of Periapsis(deg)": 0.033114955553567506,
        "Eccentricity": 0.0,
        "Inclination(deg)": 53.0,
        "Latitude(deg)": 21.196315494617508,
        "Longitude(deg)": 122.90777599111937,
        "Mean Anomaly(deg)": 26.82166433788793,
        "RAAN(deg)": 209.9507168426401,
        "Satellite Name": "Starlink Shell 1 944",
        "Satellite Number": 944,
        "Semi-Major Axis(m)": 6931778.249405717,
        "Time(s)": 950
    },
    {
        "Altitude(m)": 553954.8833584444,
        "Argument of Periapsis(deg)": 0.03346353403307874,
        "Eccentricity": 0.0,
        "Inclination(deg)": 53.0,
        "Latitude(deg)": 21.677502134922573,
        "Longitude(deg)": 123.30097231495498,
        "Mean Anomaly(deg)": 27.4484955414446,
        "RAAN(deg)": 209.95019807256264,
        "Satellite Name": "Starlink Shell 1 944",
        "Satellite Number": 944,
        "Semi-Major Axis(m)": 6931778.249405717,
        "Time(s)": 960
    },
    {
        "Altitude(m)": 554002.1429189203,
        "Argument of Periapsis(deg)": 0.03381211251258998,
        "Eccentricity": 0.0,
        "Inclination(deg)": 53.0,
        "Latitude(deg)": 22.157517703532285,
        "Longitude(deg)": 123.69705759743916,
        "Mean Anomaly(deg)": 28.075326745001348,
        "RAAN(deg)": 209.94967930248515,
        "Satellite Name": "Starlink Shell 1 944",
        "Satellite Number": 944,
        "Semi-Major Axis(m)": 6931778.249405717,
        "Time(s)": 970
    },
    {
        "Altitude(m)": 554051.2965269665,
        "Argument of Periapsis(deg)": 0.034160690992101214,
        "Eccentricity": 0.0,
        "Inclination(deg)": 53.0,
        "Latitude(deg)": 22.636325886273692,
        "Longitude(deg)": 124.09611491134466,
        "Mean Anomaly(deg)": 28.70215794855802,
        "RAAN(deg)": 209.9491605324077,
        "Satellite Name": "Starlink Shell 1 944",
        "Satellite Number": 944,
        "Semi-Major Axis(m)": 6931778.249405717,
        "Time(s)": 980
    },
    {
        "Altitude(m)": 554102.2996396387,
        "Argument of Periapsis(deg)": 0.034509269471612446,
        "Eccentricity": 0.0,
        "Inclination(deg)": 53.0,
        "Latitude(deg)": 23.113889667921242,
        "Longitude(deg)": 124.49822899384618,
        "Mean Anomaly(deg)": 29.32898915211479,
        "RAAN(deg)": 209.94864176233023,
        "Satellite Name": "Starlink Shell 1 944",
        "Satellite Number": 944,
        "Semi-Major Axis(m)": 6931778.249405717,
        "Time(s)": 990
    }
]